COSMOS 2433 (720)       
1 32275U 07052A   22108.05874708 -.00000055  00000+0  00000+0 0  9994
2 32275  66.0839   6.6734 0002227 292.7842  75.1686  2.13104152112686
COSMOS 2432 (719)       
1 32276U 07052B   22108.34982600 -.00000055  00000+0  00000+0 0  9998
2 32276  66.0974   6.7642 0011346 334.5893 205.1557  2.13103558112680
COSMOS 2434 (721)       
1 32393U 07065A   22107.73177980  .00000024  00000+0  00000+0 0  9996
2 32393  64.3965 243.4970 0004470  82.8325 283.6247  2.13103102111386
COSMOS 2436 (723)       
1 32395U 07065C   22108.01438206  .00000026  00000+0  00000+0 0  9993
2 32395  64.4057 243.5443 0015844   6.3422 352.8338  2.13103036111312
COSMOS 2456 (730)       
1 36111U 09070A   22108.46858697  .00000077  00000+0  00000+0 0  9996
2 36111  64.3370 123.1143 0005928 300.9621  77.1564  2.13099250 96069
COSMOS 2457 (733)       
1 36112U 09070B   22108.29490123  .00000078  00000+0  00000+0 0  9995
2 36112  64.3203 122.9967 0004468 196.5503 175.1399  2.13101451 96064
COSMOS 2461 (735)       
1 36401U 10007B   22108.55540323 -.00000056  00000+0  00000+0 0  9992
2 36401  65.9675   5.5072 0022084   8.1602 238.2961  2.13103753 94410
COSMOS 2460 (732)       
1 36402U 10007C   22108.51640674 -.00000056  00000+0  00000+0 0  9999
2 36402  65.9567   5.4560 0002148  10.9852 153.4051  2.13106413 94413
COSMOS 2464 (736)       
1 37139U 10041C   22107.87889406  .00000025  00000+0  00000+0 0  9996
2 37139  63.9954 242.5977 0029566  13.5032 324.4968  2.13100759 90451
COSMOS 2476 (744)       
1 37867U 11064A   22108.18864728  .00000080  00000+0  00000+0 0  9996
2 37867  64.6268 124.4562 0023093 240.6472 187.7132  2.13101912 81403
COSMOS 2477 (745)       
1 37868U 11064B   22108.10002323  .00000081  00000+0  00000+0 0  9995
2 37868  64.6348 124.5235 0020506 242.3656 296.1476  2.13101729 81356
COSMOS 2475 (743)       
1 37869U 11064C   22108.38660619  .00000079  00000+0  00000+0 0  9991
2 37869  64.6425 124.5220 0025187 258.2583  98.0653  2.13102249 81367
COSMOS 2485 (747)       
1 39155U 13019A   22108.14711372  .00000081  00000+0  00000+0 0  9993
2 39155  64.7912 124.8731 0023414 236.5720 204.3204  2.13101930 69874
COSMOS 2492 (754)       
1 39620U 14012A   22108.16748747 -.00000055  00000+0  00000+0 0  9994
2 39620  65.8441   5.1579 0014382 329.1660 161.8960  2.13103259 62827
COSMOS 2500 (755)       
1 40001U 14032A   22107.95118726 -.00000054  00000+0  00000+0 0  9994
2 40001  65.7826   5.0301 0004308 209.1094 334.8407  2.13102491 61032
COSMOS 2501 (702K)      
1 40315U 14075A   22108.14006182  .00000026  00000+0  00000+0 0  9991
2 40315  63.7028 243.2805 0016978 205.9600 290.5759  2.13101489 57444
COSMOS 2514 (751)       
1 41330U 16008A   22108.16065171 -.00000055  00000+0  00000+0 0  9995
2 41330  65.5840   4.7311 0008163 218.1851 310.1779  2.13102849 48203
COSMOS 2516 (753)       
1 41554U 16032A   22107.62119035  .00000023  00000+0  00000+0 0  9993
2 41554  63.9301 243.5566 0012880 212.0809 163.9285  2.13106167 45803
COSMOS 2522 (752)       
1 42939U 17055A   22107.74856633  .00000024  00000+0  00000+0 0  9993
2 42939  64.1644 243.9307 0005765 238.6235  92.9204  2.13101963 35554
COSMOS 2527 (756)       
1 43508U 18053A   22108.21126699  .00000081  00000+0  00000+0 0  9993
2 43508  64.9545 124.8581 0009698 241.3433 117.2789  2.13102613 29854
COSMOS 2529 (757)       
1 43687U 18086A   22108.31026149  .00000028  00000+0  00000+0 0  9998
2 43687  64.3784 244.2116 0007968 269.3195  88.6555  2.13102225 26875
COSMOS 2534 (758)       
1 44299U 19030A   22108.52896575  .00000029  00000+0  00000+0 0  9990
2 44299  64.4505 244.0827 0010736 293.2037   7.1597  2.13102047 22524
COSMOS 2544 (759)       
1 44850U 19088A   22108.24240315  .00000081  00000+0  00000+0 0  9998
2 44850  64.9392 124.7109 0014552 263.3992 162.6258  2.13102415 18290
COSMOS 2545 (760)       
1 45358U 20018A   22108.58234990 -.00000058  00000+0  00000+0 0  9991
2 45358  64.9208   5.3751 0008128 260.7131 275.6645  2.13102737 16251
COSMOS 2547 (705K)      
1 46805U 20075A   22106.89263157  .00000019  00000+0  00000+0 0  9997
2 46805  64.6739 243.5446 0005726 243.7863 288.7063  2.13103160 11464
